{
  "norad_id": 64501,
  "name": "KUIPER-00040",
  "history": [
    {
      "epoch": "2026-03-28T21:35:32.179200Z",
      "apogee_km": 626.1555080426524,
      "perigee_km": 610.4275367243354,
      "latitude_deg": -4.4938483605132566e-05,
      "longitude_deg": 8.761585926688928,
      "height_km": 611.9069516868175,
      "semi_major_axis_km": 6996.428522383494,
      "eccentricity": 0.001124,
      "inclination_deg": 51.899,
      "raan_deg": 158.9592,
      "arg_perigee_deg": 335.1628,
      "mean_anomaly_deg": 24.8793,
      "mean_motion_rev_day": 14.8350208
    },
    {
      "epoch": "2026-03-28T21:35:32.180064Z",
      "apogee_km": 626.1553681140831,
      "perigee_km": 610.4276766529056,
      "latitude_deg": -4.570332305812621e-05,
      "longitude_deg": 8.761681720364436,
      "height_km": 611.9070786687909,
      "semi_major_axis_km": 6996.428522383494,
      "eccentricity": 0.00112398,
      "inclination_deg": 51.899,
      "raan_deg": 158.9593,
      "arg_perigee_deg": 335.1628,
      "mean_anomaly_deg": 24.8793,
      "mean_motion_rev_day": 14.8350208
    },
    {
      "epoch": "2026-03-29T21:50:39.473376Z",
      "apogee_km": 626.1440711680143,
      "perigee_km": 610.3396710808765,
      "latitude_deg": -5.115938726653398e-05,
      "longitude_deg": -0.5083062244813742,
      "height_km": 611.6400606499012,
      "semi_major_axis_km": 6996.378871124445,
      "eccentricity": 0.00112947,
      "inclination_deg": 51.8991,
      "raan_deg": 154.4657,
      "arg_perigee_deg": 338.5237,
      "mean_anomaly_deg": 21.5251,
      "mean_motion_rev_day": 14.83517872
    },
    {
      "epoch": "2026-03-30T10:46:43.026240Z",
      "apogee_km": 626.1444140877429,
      "perigee_km": 610.2958461351864,
      "latitude_deg": 6.845586703223294e-05,
      "longitude_deg": 162.54909036624548,
      "height_km": 611.5173697108927,
      "semi_major_axis_km": 6996.357130111464,
      "eccentricity": 0.00113263,
      "inclination_deg": 51.8992,
      "raan_deg": 152.069,
      "arg_perigee_deg": 340.1683,
      "mean_anomaly_deg": 19.884,
      "mean_motion_rev_day": 14.83524787
    },
    {
      "epoch": "2026-03-30T20:28:45.562368Z",
      "apogee_km": 626.1356170437111,
      "perigee_km": 610.2722535338562,
      "latitude_deg": 2.6410078890224868e-05,
      "longitude_deg": 14.8424970671371,
      "height_km": 611.4305217695737,
      "semi_major_axis_km": 6996.340935288783,
      "eccentricity": 0.00113369,
      "inclination_deg": 51.8989,
      "raan_deg": 150.2714,
      "arg_perigee_deg": 341.5679,
      "mean_anomaly_deg": 18.4873,
      "mean_motion_rev_day": 14.83529938
    },
    {
      "epoch": "2026-03-31T20:43:51.393792Z",
      "apogee_km": 626.132966301705,
      "perigee_km": 610.2009828907549,
      "latitude_deg": -4.86069547549505e-05,
      "longitude_deg": 5.578163708817625,
      "height_km": 611.2299195053961,
      "semi_major_axis_km": 6996.30397459623,
      "eccentricity": 0.0011386,
      "inclination_deg": 51.8982,
      "raan_deg": 145.7774,
      "arg_perigee_deg": 344.8169,
      "mean_anomaly_deg": 15.2451,
      "mean_motion_rev_day": 14.83541694
    },
    {
      "epoch": "2026-04-01T08:02:53.868480Z",
      "apogee_km": 626.1409649354273,
      "perigee_km": 610.1726239789596,
      "latitude_deg": -1.5420735698780455e-05,
      "longitude_deg": -166.7441082216545,
      "height_km": 611.1479925695979,
      "semi_major_axis_km": 6996.293794457193,
      "eccentricity": 0.0011412,
      "inclination_deg": 51.898,
      "raan_deg": 143.6802,
      "arg_perigee_deg": 346.3733,
      "mean_anomaly_deg": 13.6921,
      "mean_motion_rev_day": 14.83544932
    },
    {
      "epoch": "2026-04-02T09:54:59.085504Z",
      "apogee_km": 626.1196150241476,
      "perigee_km": 610.0986311770157,
      "latitude_deg": -3.255432825817093e-05,
      "longitude_deg": 159.37847615671396,
      "height_km": 610.9725989965266,
      "semi_major_axis_km": 6996.246123100582,
      "eccentricity": 0.00114497,
      "inclination_deg": 51.8988,
      "raan_deg": 138.8869,
      "arg_perigee_deg": 349.9127,
      "mean_anomaly_deg": 10.1605,
      "mean_motion_rev_day": 14.83560095
    },
    {
      "epoch": "2026-04-03T11:47:03.361632Z",
      "apogee_km": 626.1165502710728,
      "perigee_km": 610.0052859333928,
      "latitude_deg": -2.5720488638287603e-05,
      "longitude_deg": 125.50440962426394,
      "height_km": 610.8089367347192,
      "semi_major_axis_km": 6996.1979181022325,
      "eccentricity": 0.00115143,
      "inclination_deg": 51.8982,
      "raan_deg": 134.093,
      "arg_perigee_deg": 353.35,
      "mean_anomaly_deg": 6.7309,
      "mean_motion_rev_day": 14.83575428
    },
    {
      "epoch": "2026-04-04T12:02:06.517248Z",
      "apogee_km": 626.117902783687,
      "perigee_km": 609.9283684602506,
      "latitude_deg": 2.047640085503096e-06,
      "longitude_deg": 116.25093425455422,
      "height_km": 610.6922925156409,
      "semi_major_axis_km": 6996.160135621969,
      "eccentricity": 0.00115703,
      "inclination_deg": 51.8979,
      "raan_deg": 129.5986,
      "arg_perigee_deg": 356.4945,
      "mean_anomaly_deg": 3.5936,
      "mean_motion_rev_day": 14.83587446
    },
    {
      "epoch": "2026-04-05T09:03:08.774496Z",
      "apogee_km": 626.1171820687205,
      "perigee_km": 609.8798511482246,
      "latitude_deg": -4.299899980410883e-07,
      "longitude_deg": 156.2331763921031,
      "height_km": 610.6285745386787,
      "semi_major_axis_km": 6996.135516608472,
      "eccentricity": 0.00116045,
      "inclination_deg": 51.8978,
      "raan_deg": 125.7034,
      "arg_perigee_deg": 359.3117,
      "mean_anomaly_deg": 0.7829,
      "mean_motion_rev_day": 14.83595277
    },
    {
      "epoch": "2026-04-05T18:45:09.726048Z",
      "apogee_km": 626.1337719734747,
      "perigee_km": 609.8449707880427,
      "latitude_deg": -2.506936851930046e-05,
      "longitude_deg": 8.533315951901093,
      "height_km": 610.5933113475481,
      "semi_major_axis_km": 6996.126371380758,
      "eccentricity": 0.00116413,
      "inclination_deg": 51.8976,
      "raan_deg": 123.9059,
      "arg_perigee_deg": 0.6602,
      "mean_anomaly_deg": 359.4375,
      "mean_motion_rev_day": 14.83598186
    },
    {
      "epoch": "2026-04-07T07:56:12.700320Z",
      "apogee_km": 626.1521081098635,
      "perigee_km": 609.7629171826484,
      "latitude_deg": 6.474982558798287e-05,
      "longitude_deg": 162.3527901897563,
      "height_km": 610.5482459105054,
      "semi_major_axis_km": 6996.094512646256,
      "eccentricity": 0.00117131,
      "inclination_deg": 51.8984,
      "raan_deg": 117.0148,
      "arg_perigee_deg": 5.5721,
      "mean_anomaly_deg": 354.5372,
      "mean_motion_rev_day": 14.8360832
    },
    {
      "epoch": "2026-04-07T20:52:13.615392Z",
      "apogee_km": 626.1684995620353,
      "perigee_km": 609.7388801859361,
      "latitude_deg": -4.2066476983798325e-05,
      "longitude_deg": -34.579071059444615,
      "height_km": 610.5529718158915,
      "semi_major_axis_km": 6996.090689873986,
      "eccentricity": 0.0011742,
      "inclination_deg": 51.8986,
      "raan_deg": 114.618,
      "arg_perigee_deg": 7.3745,
      "mean_anomaly_deg": 352.7389,
      "mean_motion_rev_day": 14.83609536
    },
    {
      "epoch": "2026-04-08T08:11:14.280000Z",
      "apogee_km": 626.1575385110709,
      "perigee_km": 609.7307399961037,
      "latitude_deg": 1.6847517577175034e-05,
      "longitude_deg": 153.1058376830089,
      "height_km": 610.5770931091149,
      "semi_major_axis_km": 6996.081139253587,
      "eccentricity": 0.001174,
      "inclination_deg": 51.8987,
      "raan_deg": 112.5204,
      "arg_perigee_deg": 8.9798,
      "mean_anomaly_deg": 351.1374,
      "mean_motion_rev_day": 14.83612574
    },
    {
      "epoch": "2026-04-09T05:11:58.585056Z",
      "apogee_km": 625.1046048204134,
      "perigee_km": 608.6605728705626,
      "latitude_deg": -3.728598726361628e-06,
      "longitude_deg": -166.8381302119305,
      "height_km": 609.6791386064507,
      "semi_major_axis_km": 6995.019588845487,
      "eccentricity": 0.00117541,
      "inclination_deg": 51.8986,
      "raan_deg": 108.624,
      "arg_perigee_deg": 14.8487,
      "mean_anomaly_deg": 345.282,
      "mean_motion_rev_day": 14.83950312
    },
    {
      "epoch": "2026-04-13T06:12:21.324096Z",
      "apogee_km": 626.804105463887,
      "perigee_km": 609.6550315132026,
      "latitude_deg": -2.2734840354985532e-05,
      "longitude_deg": 156.1074945350124,
      "height_km": 611.1962945532144,
      "semi_major_axis_km": 6996.3665684885445,
      "eccentricity": 0.00122557,
      "inclination_deg": 51.8987,
      "raan_deg": 90.6483,
      "arg_perigee_deg": 24.9653,
      "mean_anomaly_deg": 335.1901,
      "mean_motion_rev_day": 14.83521785
    },
    {
      "epoch": "2026-04-14T16:09:32.213664Z",
      "apogee_km": 626.9339776419456,
      "perigee_km": 609.6206507799989,
      "latitude_deg": -1.1921919713792593e-05,
      "longitude_deg": -0.8736699634497318,
      "height_km": 611.4588943500262,
      "semi_major_axis_km": 6996.4143142109715,
      "eccentricity": 0.0012373,
      "inclination_deg": 51.899,
      "raan_deg": 84.3569,
      "arg_perigee_deg": 29.1967,
      "mean_anomaly_deg": 330.9686,
      "mean_motion_rev_day": 14.83506599
    },
    {
      "epoch": "2026-04-15T14:47:39.228864Z",
      "apogee_km": 626.9591246124355,
      "perigee_km": 609.5716653803902,
      "latitude_deg": 3.248486680436221e-06,
      "longitude_deg": 14.473315594473245,
      "height_km": 611.6485801755629,
      "semi_major_axis_km": 6996.402394996412,
      "eccentricity": 0.0012426,
      "inclination_deg": 51.8993,
      "raan_deg": 80.1627,
      "arg_perigee_deg": 32.2314,
      "mean_anomaly_deg": 327.9407,
      "mean_motion_rev_day": 14.8351039
    }
  ]
}